GLOBALSTAR M080         
1 38041U 11080B   26201.91731319 -.00000096  00000+0  43088-4 0  9993
2 38041  52.0059 276.3288 0000297  69.7557 102.2410 12.62257617673142
GLOBALSTAR M082         
1 38042U 11080C   26201.34335230 -.00000098  00000+0  32461-4 0  9998
2 38042  52.0052 233.5791 0000191  59.3982 313.2431 12.62264361673781
GLOBALSTAR M092         
1 38043U 11080D   26201.31931571 -.00000083  00000+0  11415-3 0  9995
2 38043  52.0105 324.0500 0000738 111.9825 270.8003 12.62267930672230
GLOBALSTAR M090         
1 38044U 11080E   26201.80097476 -.00000097  00000+0  39463-4 0  9996
2 38044  52.0095 226.1523 0000388  81.3486  90.6895 12.62269646673953
GLOBALSTAR M086         
1 38045U 11080F   26201.50359285 -.00000105  00000+0 -71233-5 0  9996
2 38045  51.9871 226.9319 0001419 119.1904  44.9170 12.62287860673862
GLOBALSTAR M097         
1 39072U 13005A   26201.10344019 -.00000100  00000+0  19913-4 0  9991
2 39072  52.0033 143.1347 0000537  45.2997 314.7913 12.62271277621060
GLOBALSTAR M093         
1 39073U 13005B   26201.55179951 -.00000087  00000+0  92331-4 0  9991
2 39073  52.0098 135.1300 0000773  51.5380 308.5556 12.62266399621074
GLOBALSTAR M094         
1 39074U 13005C   26201.94758082 -.00000103  00000+0  37421-5 0  9992
2 39074  51.9970  48.0088 0001040  72.8652 287.2329 12.62264274622738
GLOBALSTAR M096         
1 39075U 13005D   26201.96110393 -.00000088  00000+0  86627-4 0  9995
2 39075  52.0076  96.7960 0000838  52.9453 307.1491 12.62265888621653
GLOBALSTAR M078         
1 39076U 13005E   26201.61751315 -.00000105  00000+0 -42519-5 0  9997
2 39076  51.9848 181.8056 0000965 353.4693   6.6161 12.62260091620236
GLOBALSTAR M095         
1 39077U 13005F   26201.32744403 -.00000104  00000+0 -77282-6 0  9991
2 39077  52.0054 180.3391 0000573  21.1660 338.9230 12.62264080620052
GLOBALSTAR M087         
1 52888U 22064A   26201.34053352 -.00000086  00000+0  98540-4 0  9995
2 52888  52.0016 321.5199 0000898  91.1053 268.9917 12.62269449195328
